NORAD_CAT_ID,OBJECT_NAME,OBJECT_TYPE,EPOCH,MEAN_MOTION,ECCENTRICITY,INCLINATION,RA_OF_ASC_NODE,ARG_OF_PERICENTER,MEAN_ANOMALY,BSTAR,MEAN_MOTION_DOT,MEAN_MOTION_DDOT,TLE_LINE0,TLE_LINE1,TLE_LINE2,SEMIMAJOR_AXIS,PERIOD,APOGEE,PERIGEE,DECAYED
52614.0,STARLINK-3982,PAYLOAD,2023-04-23 15:53:43,15.08833986,7.97e-05,53.2157,307.3658,66.6977,293.4099,1.4356e-05,-5.9e-07,0.0,0 STARLINK-3982,1 52614U 22052S   23113.66231478 -.00000059  00000-0  14356-4 0  9994,2 52614  53.2157 307.3658 0000797  66.6977 293.4099 15.08833986 52328,6917.899,95.438,540.315,539.212,0.0
52614.0,STARLINK-3982,PAYLOAD,2023-04-23 17:29:07,15.08845912,9.37e-05,53.2151,307.069,58.3462,301.7621,0.00033883,5.11e-05,0.0,0 STARLINK-3982,1 52614U 22052S   23113.72855345  .00005110  00000-0  33883-3 0  9993,2 52614  53.2151 307.0690 0000937  58.3462 301.7621 15.08845912 52706,6917.862,95.437,540.376,539.079,0.0
52614.0,STARLINK-3982,PAYLOAD,2023-04-24 06:12:11,15.08872951,9.14e-05,53.2154,304.6866,94.8151,265.2946,0.00085902,0.00013422,0.0,0 STARLINK-3982,1 52614U 22052S   23114.25846268  .00013422  00000-0  85902-3 0  9990,2 52614  53.2154 304.6866 0000914  94.8151 265.2946 15.08872951 52787,6917.78,95.435,540.277,539.012,0.0
52614.0,STARLINK-3982,PAYLOAD,2023-04-24 20:30:38,15.08883233,9.63e-05,53.2163,302.0124,71.0651,289.0445,0.0011717,0.00018431,0.0,0 STARLINK-3982,1 52614U 22052S   23114.85461577  .00018431  00000-0  11717-2 0  9999,2 52614  53.2163 302.0124 0000963  71.0651 289.0445 15.08883233 52875,6917.748,95.435,540.279,538.947,0.0
52614.0,STARLINK-3982,PAYLOAD,2023-04-25 12:24:31,15.08808129,0.0001828,53.2152,299.0373,93.41,266.7101,-0.0012432,-0.00020002,0.0,0 STARLINK-3982,1 52614U 22052S   23115.51703186 -.00020002  00000-0 -12432-2 0  9992,2 52614  53.2152 299.0373 0001828  93.4100 266.7101 15.08808129 52605,6917.978,95.44,541.107,538.578,0.0
52614.0,STARLINK-3982,PAYLOAD,2023-04-26 12:15:20,15.08816698,3.83e-05,53.2163,294.5784,127.336,232.7667,0.0013722,0.00021604,0.0,0 STARLINK-3982,1 52614U 22052S   23116.51065936  .00021604  00000-0  13722-2 0  9997,2 52614  53.2163 294.5784 0000383 127.3360 232.7667 15.08816698 52759,6917.952,95.439,540.082,539.552,0.0
52614.0,STARLINK-3982,PAYLOAD,2023-04-26 15:26:07,15.08828808,9.41e-05,53.2151,293.9831,74.4535,285.6561,0.001367,0.00021528,0.0,0 STARLINK-3982,1 52614U 22052S   23116.64314065  .00021528  00000-0  13670-2 0  9998,2 52614  53.2151 293.9831 0000941  74.4535 285.6561 15.08828808 52776,6917.915,95.438,540.431,539.129,0.0
52614.0,STARLINK-3982,PAYLOAD,2023-04-27 10:30:43,15.08878205,9.88e-05,53.2123,290.4174,110.0028,250.1071,0.0012646,0.00019916,0.0,0 STARLINK-3982,1 52614U 22052S   23117.43800400  .00019916  00000-0  12646-2 0  9999,2 52614  53.2123 290.4174 0000988 110.0028 250.1071 15.08878205 53266,6917.764,95.435,540.312,538.945,0.0
52614.0,STARLINK-3982,PAYLOAD,2023-04-28 07:10:43,15.08857485,9.84e-05,53.2141,286.5489,93.4702,266.6402,0.00010578,1.397e-05,0.0,0 STARLINK-3982,1 52614U 22052S   23118.29911682  .00001397  00000-0  10578-3 0  9996,2 52614  53.2141 286.5489 0000984  93.4702 266.6402 15.08857485 53391,6917.827,95.436,540.373,539.011,0.0
52614.0,STARLINK-3982,PAYLOAD,2023-04-28 18:18:25,15.08845226,4.68e-05,53.2139,284.469,148.8487,211.2533,-0.00012579,-2.289e-05,0.0,0 STARLINK-3982,1 52614U 22052S   23118.76279569 -.00002289  00000-0 -12579-3 0  9995,2 52614  53.2139 284.4690 0000468 148.8487 211.2533 15.08845226 53460,6917.864,95.437,540.053,539.406,0.0
52614.0,STARLINK-3982,PAYLOAD,2023-04-29 05:26:07,15.08846074,8e-05,53.2166,282.3874,122.9026,237.2043,-1.6863e-05,-5.56e-06,0.0,0 STARLINK-3982,1 52614U 22052S   23119.22647524 -.00000556  00000-0 -16863-4 0  9993,2 52614  53.2166 282.3874 0000800 122.9026 237.2043 15.08846074 53166,6917.862,95.437,540.28,539.173,0.0
52614.0,STARLINK-3982,PAYLOAD,2023-04-29 19:44:35,15.08851995,4.87e-05,53.2151,279.7083,79.0105,281.0942,0.00017587,2.513e-05,0.0,0 STARLINK-3982,1 52614U 22052S   23119.82263290  .00002513  00000-0  17587-3 0  9999,2 52614  53.2151 279.7083 0000487  79.0105 281.0942 15.08851995 53627,6917.844,95.437,540.046,539.372,0.0
52614.0,STARLINK-3982,PAYLOAD,2023-04-30 11:38:27,15.08841267,2.03e-05,53.215,276.736,94.3144,265.7871,0.0001297,1.777e-05,0.0,0 STARLINK-3982,1 52614U 22052S   23120.48503643  .00001777  00000-0  12970-3 0  9994,2 52614  53.2150 276.7360 0000203  94.3144 265.7871 15.08841267 53351,6917.877,95.437,539.882,539.601,0.0
52614.0,STARLINK-3982,PAYLOAD,2023-04-30 16:24:36,15.08844865,3.17e-05,53.2161,275.8436,84.7971,275.3058,0.00017995,2.578e-05,0.0,0 STARLINK-3982,1 52614U 22052S   23120.68375540  .00002578  00000-0  17995-3 0  9991,2 52614  53.2161 275.8436 0000317  84.7971 275.3058 15.08844865 53759,6917.866,95.437,539.95,539.511,0.0
52614.0,STARLINK-3982,PAYLOAD,2023-05-01 09:53:51,15.08832261,3.1e-05,53.2149,272.5705,67.4006,292.7019,-2.743e-05,-7.24e-06,0.0,0 STARLINK-3982,1 52614U 22052S   23121.41240041 -.00000724  00000-0 -27430-4 0  9999,2 52614  53.2149 272.5705 0000310  67.4006 292.7019 15.08832261 53867,6917.904,95.438,539.983,539.555,0.0
52614.0,STARLINK-3982,PAYLOAD,2023-05-01 16:15:23,15.08838278,4.24e-05,53.2144,271.3825,68.0616,292.0421,0.00028615,4.269e-05,0.0,0 STARLINK-3982,1 52614U 22052S   23121.67735963  .00004269  00000-0  28615-3 0  9990,2 52614  53.2144 271.3825 0000424  68.0616 292.0421 15.08838278 53530,6917.886,95.438,540.044,539.457,0.0
52614.0,STARLINK-3982,PAYLOAD,2023-05-02 09:44:38,15.08850027,8.24e-05,53.2143,268.1132,24.006,336.097,0.00067764,0.00010516,0.0,0 STARLINK-3982,1 52614U 22052S   23122.40600155  .00010516  00000-0  67764-3 0  9996,2 52614  53.2143 268.1132 0000824  24.0060 336.0970 15.08850027 53649,6917.85,95.437,540.285,539.145,0.0
52614.0,STARLINK-3982,PAYLOAD,2023-05-02 17:41:33,15.08857903,6.7e-05,53.2145,266.625,35.8954,324.2083,0.00088848,0.00013887,0.0,0 STARLINK-3982,1 52614U 22052S   23122.73719862  .00013887  00000-0  88848-3 0  9998,2 52614  53.2145 266.6250 0000670  35.8954 324.2083 15.08857903 54067,6917.826,95.436,540.154,539.227,0.0
52614.0,STARLINK-3982,PAYLOAD,2023-05-03 09:35:25,15.08843577,8.69e-05,53.2175,263.6477,84.0213,276.0878,0.0003712,5.625e-05,0.0,0 STARLINK-3982,1 52614U 22052S   23123.39960088  .00005625  00000-0  37120-3 0  9997,2 52614  53.2175 263.6477 0000869  84.0213 276.0878 15.08843577 54161,6917.869,95.437,540.336,539.133,0.0
52614.0,STARLINK-3982,PAYLOAD,2023-05-03 12:46:11,15.08840174,6.77e-05,53.2157,263.0541,81.8884,278.2185,5.1044e-05,5.25e-06,0.0,0 STARLINK-3982,1 52614U 22052S   23123.53208046  .00000525  00000-0  51044-4 0  9998,2 52614  53.2157 263.0541 0000677  81.8884 278.2185 15.08840174 53819,6917.88,95.438,540.213,539.277,0.0
52614.0,STARLINK-3982,PAYLOAD,2023-05-03 15:56:58,15.088414,5e-05,53.2157,262.4596,58.9102,301.194,0.00012232,1.66e-05,0.0,0 STARLINK-3982,1 52614U 22052S   23123.66456110  .00001660  00000-0  12232-3 0  9995,2 52614  53.2157 262.4596 0000500  58.9102 301.1940 15.08841400 53835,6917.876,95.437,540.087,539.395,0.0
52614.0,STARLINK-3982,PAYLOAD,2023-05-04 09:26:12,15.08844083,5.26e-05,53.2158,259.1898,44.165,315.9384,7.8708e-05,9.65e-06,0.0,0 STARLINK-3982,1 52614U 22052S   23124.39319973  .00000965  00000-0  78708-4 0  9999,2 52614  53.2158 259.1898 0000526  44.1650 315.9384 15.08844083 54316,6917.868,95.437,540.097,539.369,0.0
52614.0,STARLINK-3982,PAYLOAD,2023-05-04 12:36:58,15.08846933,5.25e-05,53.2158,258.5951,46.3512,313.7523,0.00014786,2.067e-05,0.0,0 STARLINK-3982,1 52614U 22052S   23124.52567867  .00002067  00000-0  14786-3 0  9991,2 52614  53.2158 258.5951 0000525  46.3512 313.7523 15.08846933 53966,6917.859,95.437,540.087,539.361,0.0
52614.0,STARLINK-3982,PAYLOAD,2023-05-04 15:47:44,15.08851411,5.47e-05,53.2158,258.0004,47.1103,312.9935,0.00024213,3.569e-05,0.0,0 STARLINK-3982,1 52614U 22052S   23124.65815655  .00003569  00000-0  24213-3 0  9990,2 52614  53.2158 258.0004 0000547  47.1103 312.9935 15.08851411 53986,6917.846,95.437,540.089,539.332,0.0
52614.0,STARLINK-3982,PAYLOAD,2023-05-05 12:27:46,15.08833055,6.75e-05,53.2159,254.135,67.6692,292.4372,-3.7143e-05,-8.79e-06,0.0,0 STARLINK-3982,1 52614U 22052S   23125.51928451 -.00000879  00000-0 -37143-4 0  9995,2 52614  53.2159 254.1350 0000675  67.6692 292.4372 15.08833055 54487,6917.902,95.438,540.234,539.3,0.0
52614.0,STARLINK-3982,PAYLOAD,2023-05-05 14:03:09,15.08835752,6.78e-05,53.2158,253.8378,64.8892,295.2171,2.593e-05,1.25e-06,0.0,0 STARLINK-3982,1 52614U 22052S   23125.58552400  .00000125  00000-0  25930-4 0  9992,2 52614  53.2158 253.8378 0000678  64.8892 295.2171 15.08835752 54121,6917.893,95.438,540.227,539.289,0.0
52614.0,STARLINK-3982,PAYLOAD,2023-05-06 15:29:19,15.0886221,7.72e-05,53.2161,249.0805,64.8417,295.2655,0.0012288,0.00019334,0.0,0 STARLINK-3982,1 52614U 22052S   23126.64536177  .00019334  00000-0  12288-2 0  9995,2 52614  53.2161 249.0805 0000772  64.8417 295.2655 15.08862210 54288,6917.813,95.436,540.212,539.143,0.0
52614.0,STARLINK-3982,PAYLOAD,2023-05-07 01:01:38,15.0885212,5.56e-05,53.2157,247.2954,80.0006,280.1048,0.00063265,9.799e-05,0.0,0 STARLINK-3982,1 52614U 22052S   23127.04280117  .00009799  00000-0  63265-3 0  9996,2 52614  53.2157 247.2954 0000556  80.0006 280.1048 15.08852120 54718,6917.843,95.437,540.093,539.324,0.0
52614.0,STARLINK-3982,PAYLOAD,2023-05-07 13:44:43,15.08838171,5.47e-05,53.2156,244.9176,87.5976,272.5078,0.00022193,3.246e-05,0.0,0 STARLINK-3982,1 52614U 22052S   23127.57272546  .00003246  00000-0  22193-3 0  9997,2 52614  53.2156 244.9176 0000547  87.5976 272.5078 15.08838171 54421,6917.886,95.438,540.129,539.373,0.0
52614.0,STARLINK-3982,PAYLOAD,2023-05-07 15:20:06,15.08840035,5.98e-05,53.2155,244.6212,82.5788,277.5272,0.00035913,5.433e-05,0.0,0 STARLINK-3982,1 52614U 22052S   23127.63896599  .00005433  00000-0  35913-3 0  9998,2 52614  53.2155 244.6212 0000598  82.5788 277.5272 15.08840035 54805,6917.88,95.438,540.159,539.332,0.0
